[{"OBJECT_NAME":"YAOGAN-30 01","OBJECT_ID":"2016-029A","EPOCH":"2026-03-09T22:16:48.722016","MEAN_MOTION":14.76274788,"ECCENTRICITY":0.00157389,"INCLINATION":97.9148,"RA_OF_ASC_NODE":120.91,"ARG_OF_PERICENTER":189.8779,"MEAN_ANOMALY":170.2124,"EPHEMERIS_TYPE":0,"CLASSIFICATION_TYPE":"U","NORAD_CAT_ID":41473,"ELEMENT_SET_NO":999,"REV_AT_EPOCH":52902,"BSTAR":0.00014079797,"MEAN_MOTION_DOT":9.27e-6,"MEAN_MOTION_DDOT":0},{"OBJECT_NAME":"CZ-4C R\/B","OBJECT_ID":"2022-035B","EPOCH":"2026-03-09T17:12:26.005824","MEAN_MOTION":14.7427579,"ECCENTRICITY":0.01045469,"INCLINATION":98.2415,"RA_OF_ASC_NODE":134.9721,"ARG_OF_PERICENTER":190.6082,"MEAN_ANOMALY":169.2921,"EPHEMERIS_TYPE":0,"CLASSIFICATION_TYPE":"U","NORAD_CAT_ID":52201,"ELEMENT_SET_NO":999,"REV_AT_EPOCH":21079,"BSTAR":0.0001664192,"MEAN_MOTION_DOT":1.142e-5,"MEAN_MOTION_DDOT":0}]
